{"type": "FeatureCollection", "features": [{"type": "Feature", "properties": {"STATE": "78", "COUNTY": "010", "NAME": "St. Croix"}, "geometry": {"type": "Polygon", "coordinates": [[[-64.95671400014099, 17.678976999942922], [-64.95648900001011, 17.672328999872185], [-64.95558199981382, 17.66877200036939], [-64.95503199999291, 17.666610999655422], [-64.9531809997904, 17.661021999911306], [-64.94971399956205, 17.653274000019874], [-64.94358300044289, 17.644095000001], [-64.93517100005259, 17.63518599972859], [-64.92583800012063, 17.629043000230606], [-64.91591400035988, 17.62523099972471], [-64.90802300037649, 17.623958000232662], [-64.90036099982366, 17.623467999752307], [-64.89252500009185, 17.624230000403454], [-64.88541099971009, 17.62595199996659], [-64.87679599982853, 17.62938000012927], [-64.8745909996237, 17.630766999957892], [-64.87056799972667, 17.6332539995885], [-64.86934099986324, 17.634151999803723], [-64.86556300018857, 17.63532899984329], [-64.86257999965892, 17.63514099974685], [-64.86034100001721, 17.6339919999461], [-64.85989800032641, 17.633765000284303], [-64.85130799966089, 17.63116600012529], [-64.84384199982496, 17.630103999902573], [-64.83575400019808, 17.630132000256403], [-64.83004999997786, 17.630663000211147], [-64.82569999984267, 17.631543999739687], [-64.82448899987277, 17.631190999621463], [-64.82190999957412, 17.629576999831663], [-64.81758999957616, 17.6277869996479], [-64.81485999966479, 17.626841000011883], [-64.81152800005398, 17.625686999656974], [-64.80651799959469, 17.62515900039603], [-64.80168600030899, 17.624695000132554], [-64.79939700043857, 17.624806999744536], [-64.79459600021667, 17.62504400020766], [-64.78923599995302, 17.625790999705373], [-64.7888610000343, 17.62584400011033], [-64.78122799979378, 17.627790000397237], [-64.77624900019497, 17.62932100017218], [-64.77274599998161, 17.62998499963461], [-64.7675649998181, 17.62993099963816], [-64.76100600017847, 17.6302030002168], [-64.75913499988447, 17.630383999820467], [-64.75643599993523, 17.63064600023038], [-64.75290900033075, 17.632052000324055], [-64.75041000039805, 17.633375000133796], [-64.74958900041548, 17.633695999877897], [-64.74612700021001, 17.634542999912227], [-64.74034799964673, 17.636341999897443], [-64.7374589997267, 17.63813800018184], [-64.7350800003429, 17.63831200018021], [-64.73418099964422, 17.638378999864162], [-64.72797799965673, 17.63987399986392], [-64.72494700034477, 17.64072199986138], [-64.71655900024392, 17.64350399991608], [-64.71109799969796, 17.646722999654084], [-64.70813799963281, 17.64753699974365], [-64.69890199978522, 17.6488989997485], [-64.69611800034548, 17.649545000078767], [-64.6908390002727, 17.65034599977594], [-64.68783400000171, 17.6508030001987], [-64.68095999981948, 17.652972999981003], [-64.67611699976479, 17.654738000261673], [-64.67454500011986, 17.65531200006606], [-64.6701399997331, 17.657040999951896], [-64.6611859999178, 17.659313999607857], [-64.65473299968505, 17.65945400003211], [-64.64683599985388, 17.660238000395477], [-64.63368599988918, 17.664643000342057], [-64.62801099998129, 17.667826000293715], [-64.62458499976083, 17.669307000028297], [-64.62230699976107, 17.670161000138055], [-64.61833300026782, 17.672912999757067], [-64.61805899973314, 17.673032999615806], [-64.61615099962923, 17.67386699984515], [-64.60682299972014, 17.677105000135974], [-64.60087900019872, 17.681115999713477], [-64.59906800017919, 17.68203300040756], [-64.59644500039792, 17.6833619997034], [-64.59359599976256, 17.685367000096456], [-64.58976000036158, 17.687035000343755], [-64.5849740002083, 17.68941699995661], [-64.57923900002592, 17.69274900035369], [-64.57698799979035, 17.69451599969384], [-64.57131700008041, 17.695271000284592], [-64.56096399997423, 17.697967000382324], [-64.54957999982325, 17.702692000322482], [-64.54874799997003, 17.70303800026038], [-64.53977599971309, 17.708713999825754], [-64.53101600006657, 17.715912999809284], [-64.52472199984246, 17.72270299990983], [-64.5202970002625, 17.729863000064665], [-64.5168600001714, 17.738683000062935], [-64.51409299955178, 17.747061000269582], [-64.51359999963228, 17.74802900014242], [-64.51273400034219, 17.752356999687144], [-64.51267400006775, 17.75714199989603], [-64.51317799985789, 17.76040699982495], [-64.51600499985365, 17.77144399972642], [-64.52006899975856, 17.779576000017457], [-64.52306099961078, 17.785019000119945], [-64.52686900032097, 17.78998599973344], [-64.52982099999019, 17.79300299962555], [-64.53419200004178, 17.796281999662295], [-64.53888399958541, 17.79976199983872], [-64.54677399974389, 17.804875000255045], [-64.55316900025034, 17.80848000019616], [-64.55619100023975, 17.810553000052234], [-64.55879099955648, 17.81441200042603], [-64.56373599971842, 17.819607999753035], [-64.56711500008322, 17.82279099998345], [-64.57404600016686, 17.82706499974705], [-64.5799830000156, 17.830907999972915], [-64.58353700028259, 17.833077999924907], [-64.59231299982264, 17.837342000086903], [-64.5993719999528, 17.83986400014901], [-64.6021539997427, 17.84085900005208], [-64.61206199960995, 17.843496999867657], [-64.61518599970663, 17.843985000019124], [-64.62458300011099, 17.84450500005376], [-64.63228400012359, 17.84495399990726], [-64.63888100029638, 17.844877000146173], [-64.6470979997947, 17.843730999686706], [-64.65234699973026, 17.842382999821627], [-64.66339899962023, 17.83758400006091], [-64.6681129998035, 17.83522700019243], [-64.67327800007347, 17.83151199965913], [-64.67723999987115, 17.827879999701562], [-64.67899900001211, 17.826269000017458], [-64.68201199978073, 17.822714999779546], [-64.68544200019915, 17.81773500013423], [-64.68616699992225, 17.815087999685993], [-64.69000200039662, 17.81324900003993], [-64.69752400030906, 17.808761000357975], [-64.70052500038209, 17.809198000226196], [-64.70425500037616, 17.813583999849417], [-64.708833000117, 17.81819499981677], [-64.7138329996322, 17.82259899994599], [-64.71851000000554, 17.825924000389033], [-64.72438499992998, 17.82916699959747], [-64.72986599966914, 17.831264999850895], [-64.73354499960958, 17.832843000111083], [-64.73834900020452, 17.833832999848404], [-64.74318800006127, 17.834753000423778], [-64.74707200004113, 17.835179000132545], [-64.74958500021754, 17.83518100031345], [-64.75844299977335, 17.833928999825666], [-64.76264700031865, 17.83306499987778], [-64.76447800042968, 17.83312099961346], [-64.7651489997261, 17.83314199961667], [-64.76765600005471, 17.832644000339208], [-64.76902900040633, 17.83285199976029], [-64.77490299960755, 17.834055999760587], [-64.78307499979832, 17.834523999964517], [-64.7896350001612, 17.834174999691502], [-64.7980700001177, 17.83305499970935], [-64.80376000009423, 17.831688999986156], [-64.80683899998506, 17.830549999690554], [-64.80949399955337, 17.829444000011044], [-64.81089899969203, 17.829821000104108], [-64.812593000434, 17.829656999928034], [-64.81580799986897, 17.82892500015872], [-64.81941099964142, 17.828092000075543], [-64.82224299966006, 17.826917999788606], [-64.8272020000657, 17.824569000230614], [-64.83024900016949, 17.823024999642506], [-64.83489399985746, 17.820303000148442], [-64.83901700021192, 17.816970000199653], [-64.84122099969353, 17.815085000359115], [-64.8421410003086, 17.814749999948756], [-64.84344500016492, 17.81475399991398], [-64.8447749999605, 17.81563699965969], [-64.84688200025604, 17.8163870002377], [-64.85000999965237, 17.817174999810984], [-64.85176700014354, 17.817686999637885], [-64.85619000007365, 17.819425000034975], [-64.86156600023081, 17.820996000059317], [-64.86554499974693, 17.821313000242142], [-64.86920699996894, 17.821628000383317], [-64.8724859998763, 17.821537000171656], [-64.87458899997388, 17.821205999733593], [-64.8767099996148, 17.821234000184603], [-64.88272900037761, 17.820339000421185], [-64.89048200026873, 17.818324999976735], [-64.89555999960176, 17.816675999757397], [-64.89929799999175, 17.815462999813604], [-64.90588500011881, 17.812203000245304], [-64.91056099976892, 17.809016999706095], [-64.91633500030936, 17.804543999677012], [-64.9201959998247, 17.801156999629143], [-64.92352800033383, 17.798025000148176], [-64.92405999971307, 17.797524999676522], [-64.92459199999064, 17.797025000370184], [-64.9267870001497, 17.794961999601618], [-64.93153599959476, 17.788973000418405], [-64.93419600008426, 17.784678999990195], [-64.93728300037101, 17.777547999920397], [-64.94125699986424, 17.76882900002743], [-64.94359900033642, 17.762611999723596], [-64.94544600034094, 17.75663299958949], [-64.94681100029663, 17.748027999991443], [-64.9463650002328, 17.74470200001932], [-64.94542399970132, 17.73682199990992], [-64.94373099968257, 17.729167000163613], [-64.94098700042582, 17.722311000395973], [-64.9389379998566, 17.717533999810247], [-64.93956399984549, 17.71669499962967], [-64.94350300007694, 17.712685999589507], [-64.94792699983196, 17.70634399979474], [-64.9517999999412, 17.699281000399402], [-64.95447399977607, 17.691828999894813], [-64.95638400042812, 17.68365199977168], [-64.95671400014099, 17.678976999942922]]]}}, {"type": "Feature", "properties": {"STATE": "78", "COUNTY": "020", "NAME": "St. John"}, "geometry": {"type": "Polygon", "coordinates": [[[-64.84372999967196, 18.39371300030382], [-64.84373899989279, 18.373009000365972], [-64.84372299999927, 18.361365000191906], [-64.84371999962622, 18.358320999748766], [-64.84371899980131, 18.35725999976451], [-64.84371799997639, 18.356866000408512], [-64.8437170001515, 18.355988000345285], [-64.84370999958047, 18.34950200039232], [-64.84070100000984, 18.34725499957957], [-64.83167699987436, 18.340515000215316], [-64.82303000020573, 18.33405699989175], [-64.8189219999199, 18.330988999985316], [-64.80611300043707, 18.321421000137935], [-64.80047399961585, 18.31720999983548], [-64.80035399996524, 18.317121000039347], [-64.79999699958987, 18.31685400037633], [-64.79987799976418, 18.316765000397123], [-64.79915600041413, 18.315475999907616], [-64.79699399986703, 18.311608999690858], [-64.79627499999172, 18.310320000038498], [-64.79601999972358, 18.30986599997903], [-64.79525900001549, 18.308504000333762], [-64.79500600029549, 18.308051000162738], [-64.79471400021745, 18.307527999750913], [-64.7938370001584, 18.305961999613224], [-64.79354699973017, 18.305440000116207], [-64.79302000037379, 18.30449800034618], [-64.78850399965891, 18.296418000379138], [-64.77337699999337, 18.269353999656754], [-64.76833599957196, 18.26033299977352], [-64.76453899963074, 18.26042000010864], [-64.7640800000464, 18.26043099969686], [-64.75776900010386, 18.260855000277374], [-64.7541370000191, 18.261707000092024], [-64.75328199970134, 18.261902000239683], [-64.75071499999659, 18.262492000052685], [-64.74958000019467, 18.262744000388338], [-64.74873599974757, 18.26305900008032], [-64.74695400004035, 18.262337000107998], [-64.74320999980257, 18.260724999988117], [-64.74074699985489, 18.259471000206535], [-64.73654900005566, 18.25857099986332], [-64.73404900029806, 18.257047999734247], [-64.7317350003133, 18.255571999847824], [-64.72947499985688, 18.254130999867176], [-64.72419800033224, 18.251963000172907], [-64.72017399971196, 18.250690000298874], [-64.71483799973777, 18.24956500007022], [-64.70790699965413, 18.24872499976807], [-64.70087900038442, 18.24876100037619], [-64.69995499957137, 18.24876100037619], [-64.69448899990084, 18.248757999899222], [-64.68803999986604, 18.24989799996178], [-64.68166600017432, 18.251575000091705], [-64.67822900008318, 18.25231600023057], [-64.67492400023653, 18.254129000179766], [-64.67123799972508, 18.25615400032983], [-64.66425899996086, 18.26127099969586], [-64.66130100044384, 18.26735899975007], [-64.66385499972982, 18.28537600018612], [-64.65122500034714, 18.30091500012427], [-64.63947799997297, 18.317326000028096], [-64.63773499972552, 18.319758999655463], [-64.638523999921, 18.320492000157035], [-64.63903199990912, 18.321598000070736], [-64.63963299978367, 18.32450100013897], [-64.64273099994107, 18.33947799979165], [-64.64368900019099, 18.344106999774176], [-64.64306999987478, 18.34561800007878], [-64.63914400006212, 18.35518999976734], [-64.6404370000478, 18.363997000315987], [-64.64520200028468, 18.364456000059516], [-64.64967799991824, 18.364514000085126], [-64.65866699989363, 18.364729999920808], [-64.66194099977812, 18.36530399975724], [-64.66436000024318, 18.36568499963724], [-64.66848100004952, 18.3655769999245], [-64.67211300013432, 18.366484000346215], [-64.67524899992654, 18.367462999891348], [-64.68119099979815, 18.371981999993565], [-64.68329300007083, 18.37256699971408], [-64.68349700028531, 18.37257599982546], [-64.68752199983219, 18.37276100030554], [-64.69110100021352, 18.371884000123313], [-64.69659799984619, 18.371245000421933], [-64.69837500042885, 18.3710380004074], [-64.70160400010751, 18.370635999916793], [-64.7018929998125, 18.371137999947113], [-64.70614699968823, 18.373008000356148], [-64.70617500017563, 18.373017999601746], [-64.7062150003586, 18.37303199973818], [-64.70695699980014, 18.373297000401244], [-64.70819700008235, 18.373742000052022], [-64.70937200006725, 18.373746000074327], [-64.71020300009555, 18.373749000091006], [-64.71089400038176, 18.373752000107622], [-64.71158399994476, 18.373754000118673], [-64.71249100014104, 18.37375800014071], [-64.71882700019795, 18.373883999934623], [-64.71891400023658, 18.373921000106954], [-64.72002200027433, 18.374394999907764], [-64.72702500032798, 18.374725000187052], [-64.72811699957388, 18.375977999760455], [-64.72982999968413, 18.377944999613337], [-64.73471499957161, 18.376866000303476], [-64.73765000042071, 18.37621700038988], [-64.73881100016189, 18.376255000052787], [-64.73882399968238, 18.376255000052787], [-64.74102499968923, 18.377377999951683], [-64.7417829999226, 18.377583000064057], [-64.74298100037204, 18.377908000304238], [-64.74348900036016, 18.37804600024457], [-64.74380400000442, 18.37813100028259], [-64.7439859995793, 18.378112999786566], [-64.74605699988983, 18.377903000396977], [-64.74732499976112, 18.37767100027872], [-64.74905200011506, 18.37706900019932], [-64.74958100001957, 18.377307000184512], [-64.7514840001006, 18.377420000148447], [-64.75196199995149, 18.37744899968967], [-64.75268800039781, 18.37733699972947], [-64.75692300000696, 18.376685999906186], [-64.76816499986772, 18.38176399984164], [-64.77187099957237, 18.383437999928905], [-64.7780049999629, 18.386209000173007], [-64.78500100034388, 18.403801999937325], [-64.80032899985089, 18.407594999762125], [-64.81667400005736, 18.402905999694745], [-64.82301500013713, 18.39940200033223], [-64.83027500010874, 18.39539099978718], [-64.8306170004155, 18.395202000197763], [-64.84135499958782, 18.393708000002537], [-64.84372999967196, 18.39371300030382]]]}}, {"type": "Feature", "properties": {"STATE": "78", "COUNTY": "030", "NAME": "St. Thomas"}, "geometry": {"type": "Polygon", "coordinates": [[[-65.15387900012074, 18.281144999865457], [-65.15411799959702, 18.277425000288062], [-65.1518849998031, 18.268910999683065], [-65.14772299998889, 18.25908500031778], [-65.14262200019134, 18.25078900040707], [-65.13121999959868, 18.241756999587835], [-65.1172670000931, 18.234771999860044], [-65.10083099965003, 18.232629000195324], [-65.0934009997991, 18.23361500022361], [-65.08581299976441, 18.235085000017726], [-65.08432499978508, 18.23537299997043], [-65.08095299999128, 18.236481999931762], [-65.07680000039791, 18.238195000058035], [-65.07201500006953, 18.240928999830597], [-65.06773199988149, 18.243908000297566], [-65.06532900020827, 18.246097000070428], [-65.06333999991351, 18.24804300020448], [-65.06191899988131, 18.24955499966392], [-65.0601070000369, 18.251537000349384], [-65.05774799984627, 18.254162999981126], [-65.05663999980854, 18.25591799970982], [-65.0527929996386, 18.26235899989392], [-65.05089899977838, 18.26637200033326], [-65.05019400014679, 18.269128999807563], [-65.04858099959566, 18.266777000142845], [-65.04106100023138, 18.262441000234755], [-65.03156500009278, 18.25627700010293], [-65.01982100009167, 18.252354999656433], [-65.0138249997934, 18.251933000219527], [-65.00857199965989, 18.251563999942633], [-64.99959199990533, 18.252691999580463], [-64.99786100025175, 18.252492999916996], [-64.9936049998279, 18.25375000013687], [-64.98924200017223, 18.255174999904177], [-64.98481000002127, 18.256161000007157], [-64.98041399985532, 18.25691200018843], [-64.97871800036184, 18.256519999898007], [-64.97802200005275, 18.256358999903263], [-64.97394300007922, 18.25613400027526], [-64.96975600015064, 18.256615999754956], [-64.96740000033309, 18.256737000396583], [-64.96096399981876, 18.256059999882716], [-64.95772599991926, 18.256090999808897], [-64.95431700031556, 18.25612300041488], [-64.94837200007089, 18.256829999796043], [-64.94647200036293, 18.257223000065807], [-64.94541899967845, 18.254556000313407], [-64.94376900021571, 18.251446000393894], [-64.94206100012835, 18.24801099981645], [-64.94206100012835, 18.24800999993755], [-64.93960200037864, 18.24455699980856], [-64.93653900038133, 18.241131999612566], [-64.93371400003541, 18.237969999947772], [-64.92690400032558, 18.23259299965932], [-64.92103400042399, 18.228842999713358], [-64.91485499982763, 18.22647999992182], [-64.91322799993112, 18.225857999671366], [-64.9063260001598, 18.224233999771304], [-64.90615100025761, 18.224192999978538], [-64.90612600014325, 18.223989000033722], [-64.90598700022606, 18.222844999810604], [-64.90598399985302, 18.22280799978598], [-64.90592500030179, 18.222465999831805], [-64.90523999986335, 18.218513999773112], [-64.90335699987381, 18.213955999755015], [-64.90296000021378, 18.212995000420886], [-64.89977500001773, 18.20652499958742], [-64.89549900040069, 18.200486999589113], [-64.88975199962447, 18.194235999675207], [-64.8876989997556, 18.192505000380415], [-64.88640300029519, 18.191412000064247], [-64.88015400027695, 18.187743000361102], [-64.87930900000494, 18.1872469997885], [-64.87458599960084, 18.18452499976949], [-64.87253399955691, 18.18348399997369], [-64.8693800002213, 18.182434000199986], [-64.86498499988028, 18.180910000043458], [-64.85803500042836, 18.17958700037581], [-64.85492399985216, 18.17962199964726], [-64.84955199989295, 18.17968299999451], [-64.84166799958227, 18.180927999679483], [-64.83335300017467, 18.183455999811397], [-64.82485200009593, 18.187976999972868], [-64.81851699986393, 18.192060999884514], [-64.81181599993405, 18.198712999933438], [-64.8068909998636, 18.20516299997067], [-64.80277300043032, 18.21337200038431], [-64.79996499980282, 18.222596999748966], [-64.79943599989831, 18.22764800004403], [-64.79926099999612, 18.22932199982891], [-64.79951399971611, 18.23648699965786], [-64.80041900026258, 18.241084000105793], [-64.80128899975062, 18.245105999683748], [-64.79251800023344, 18.248012999574268], [-64.78740900003997, 18.25036400012979], [-64.78698700026558, 18.250559000215457], [-64.78289099967532, 18.25269300028556], [-64.77875899999832, 18.25546899970892], [-64.77635399977694, 18.2577009997901], [-64.7738020001408, 18.260139000232243], [-64.77341999965108, 18.260505999740122], [-64.77074099979333, 18.26027800008828], [-64.76833599957196, 18.26033299977352], [-64.77337699999337, 18.269353999656754], [-64.78850399965891, 18.296418000379138], [-64.79302000037379, 18.30449800034618], [-64.79354699973017, 18.305440000116207], [-64.7938370001584, 18.305961999613224], [-64.79471400021745, 18.307527999750913], [-64.79500600029549, 18.308051000162738], [-64.79525900001549, 18.308504000333762], [-64.79601999972358, 18.30986599997903], [-64.79627499999172, 18.310320000038498], [-64.79699399986703, 18.311608999690858], [-64.79915600041413, 18.315475999907616], [-64.79987799976418, 18.316765000397123], [-64.79999699958987, 18.31685400037633], [-64.80035399996524, 18.317121000039347], [-64.80047399961585, 18.31720999983548], [-64.80611300043707, 18.321421000137935], [-64.8189219999199, 18.330988999985316], [-64.82303000020573, 18.33405699989175], [-64.83167699987436, 18.340515000215316], [-64.84070100000984, 18.34725499957957], [-64.84370999958047, 18.34950200039232], [-64.8437170001515, 18.355988000345285], [-64.84371799997639, 18.356866000408512], [-64.84371899980131, 18.35725999976451], [-64.84371999962622, 18.358320999748766], [-64.84372299999927, 18.361365000191906], [-64.84373899989279, 18.373009000365972], [-64.84372999967196, 18.39371300030382], [-64.84416700041328, 18.39371400019356], [-64.845484999615, 18.393716999862793], [-64.84592400000614, 18.39371899964224], [-64.84878799981182, 18.393822000186418], [-64.85738000012714, 18.394131999632066], [-64.85995000020495, 18.394225000209396], [-64.8602289998642, 18.394318999770345], [-64.86444400028019, 18.39574600030013], [-64.86497599965945, 18.395927000277702], [-64.87276500043389, 18.404929000341465], [-64.8733439996688, 18.405598000209153], [-64.87391199993137, 18.40625499967455], [-64.87383999996133, 18.406830000003662], [-64.87458700032407, 18.40973900002818], [-64.87458700032407, 18.410694000131237], [-64.89103299991457, 18.46216000035929], [-64.89502400002455, 18.463364000355423], [-64.89834300011489, 18.4641239999416], [-64.89985500038367, 18.46446999959561], [-64.90759499985602, 18.464983999965646], [-64.91449800035056, 18.464480999821905], [-64.92096199955567, 18.4638150000327], [-64.92105100014243, 18.463805999580302], [-64.92764199956915, 18.461949000090907], [-64.92822800027338, 18.461695000001253], [-64.93304299984067, 18.4596119998411], [-64.9384800000972, 18.45683700009265], [-64.94269200014014, 18.454157000283907], [-64.9460980002691, 18.451303999918007], [-64.94817100022945, 18.44895000013944], [-64.95045500007699, 18.446294000196506], [-64.95958899981733, 18.4490749998717], [-64.96918200004029, 18.450946999900896], [-64.97492600044349, 18.45127899996246], [-64.98238899990638, 18.450707999918677], [-64.98750499977255, 18.44972099994891], [-64.99392000037048, 18.44748900022496], [-64.99959000025551, 18.44552599996087], [-65.00246400010693, 18.444212999866], [-65.00776900011897, 18.440702999610068], [-65.01729899969443, 18.44932299993016], [-65.03038199971196, 18.4553759999645], [-65.04152200036381, 18.459102000166148], [-65.06066500025372, 18.45974699965178], [-65.0805670002019, 18.452807000306912], [-65.09179099962103, 18.447101999782475], [-65.1004130000736, 18.439544000185897], [-65.1072989999514, 18.428608999605988], [-65.11221499980104, 18.418827000000043], [-65.11375999968178, 18.40687500013368], [-65.11305699969998, 18.395757999687614], [-65.11488699998608, 18.391445000147186], [-65.11627399968309, 18.386602999866167], [-65.11677199962546, 18.38384899994007], [-65.11742699992666, 18.38023300029048], [-65.12285900016033, 18.37301100038565], [-65.12320499976673, 18.372270000038302], [-65.12424699968223, 18.370049999589373], [-65.12459499983677, 18.369310000196478], [-65.12862000028196, 18.363868999997095], [-65.13034699973758, 18.361536999763214], [-65.13513799991372, 18.35085499996266], [-65.13992800026497, 18.336290999726405], [-65.13994099978545, 18.336290999726405], [-65.13941799972872, 18.328533000350514], [-65.13940900040622, 18.328384999944408], [-65.13768899972496, 18.320558000391856], [-65.1448089999545, 18.312885999950886], [-65.15069899994755, 18.302844999769036], [-65.1536439999441, 18.293138999799513], [-65.15387900012074, 18.281144999865457]]]}}]}
